{
    "links": {
        "self": "http://www.neowsapp.com/rest/v1/neo/3588022?api_key=iIulBulltgU6a56xZRHN4H3l9WmuAYTsLGpBGhQ2"
    },
    "id": "3588022",
    "neo_reference_id": "3588022",
    "name": "(2011 WU2)",
    "designation": "2011 WU2",
    "nasa_jpl_url": "http://ssd.jpl.nasa.gov/sbdb.cgi?sstr=3588022",
    "absolute_magnitude_h": 24.8,
    "estimated_diameter": {
        "kilometers": {
            "estimated_diameter_min": 0.0291443905,
            "estimated_diameter_max": 0.0651688382
        },
        "meters": {
            "estimated_diameter_min": 29.1443904535,
            "estimated_diameter_max": 65.1688382168
        },
        "miles": {
            "estimated_diameter_min": 0.018109479,
            "estimated_diameter_max": 0.0404940262
        },
        "feet": {
            "estimated_diameter_min": 95.6180819754,
            "estimated_diameter_max": 213.8085311752
        }
    },
    "is_potentially_hazardous_asteroid": false,
    "close_approach_data": [
        {
            "close_approach_date": "2011-11-12",
            "close_approach_date_full": "2011-Nov-12 10:31",
            "epoch_date_close_approach": 1321093860000,
            "relative_velocity": {
                "kilometers_per_second": "2.1942910443",
                "kilometers_per_hour": "7899.4477596458",
                "miles_per_hour": "4908.4096370977"
            },
            "miss_distance": {
                "astronomical": "0.1455845395",
                "lunar": "56.6323858655",
                "kilometers": "21779137.014130865",
                "miles": "13532928.210361337"
            },
            "orbiting_body": "Earth"
        }
    ],
    "orbital_data": {
        "orbit_id": "6",
        "orbit_determination_date": "2020-01-10 05:13:13",
        "first_observation_date": "2011-11-17",
        "last_observation_date": "2011-11-23",
        "data_arc_in_days": 6,
        "observations_used": 16,
        "orbit_uncertainty": "9",
        "minimum_orbit_intersection": ".144311",
        "jupiter_tisserand_invariant": "5.353",
        "epoch_osculation": "2455884.5",
        "eccentricity": ".04385525525934089",
        "semi_major_axis": "1.182113611093276",
        "inclination": "3.015746741630959",
        "ascending_node_longitude": "236.7849548215631",
        "orbital_period": "469.4477411987474",
        "perihelion_distance": "1.130271716933239",
        "perihelion_argument": "198.5867850541536",
        "aphelion_distance": "1.233955505253313",
        "perihelion_time": "2455909.230541563971",
        "mean_anomaly": "341.0351734991939",
        "mean_motion": ".7668585199296739",
        "equinox": "J2000",
        "orbit_class": {
            "orbit_class_type": "AMO",
            "orbit_class_description": "Near-Earth asteroid orbits similar to that of 1221 Amor",
            "orbit_class_range": "1.017 AU < q (perihelion) < 1.3 AU"
        }
    },
    "is_sentry_object": false
}